[{"OBJECT_NAME":"STARLINK-5305","OBJECT_ID":"2023-010AX","EPOCH":"2026-03-09T23:24:48.397824","MEAN_MOTION":14.983289,"ECCENTRICITY":0.00027201,"INCLINATION":70.001,"RA_OF_ASC_NODE":3.7935,"ARG_OF_PERICENTER":272.9797,"MEAN_ANOMALY":87.1051,"EPHEMERIS_TYPE":0,"CLASSIFICATION_TYPE":"U","NORAD_CAT_ID":55314,"ELEMENT_SET_NO":999,"REV_AT_EPOCH":17468,"BSTAR":-4.3090972e-5,"MEAN_MOTION_DOT":-6.07e-6,"MEAN_MOTION_DDOT":0},{"OBJECT_NAME":"LEMUR-2-LIA-MARTIN","OBJECT_ID":"2025-052AQ","EPOCH":"2026-03-09T16:52:54.660288","MEAN_MOTION":14.96805944,"ECCENTRICITY":0.00038171,"INCLINATION":97.6996,"RA_OF_ASC_NODE":322.6614,"ARG_OF_PERICENTER":139.7155,"MEAN_ANOMALY":220.435,"EPHEMERIS_TYPE":0,"CLASSIFICATION_TYPE":"U","NORAD_CAT_ID":63248,"ELEMENT_SET_NO":999,"REV_AT_EPOCH":5379,"BSTAR":0.0006082839,"MEAN_MOTION_DOT":6.911e-5,"MEAN_MOTION_DDOT":0}]
